start=new Date('2022-12-05T00:00:00.000Z').valueOf();
sats=[{"LAUNCH_DATE":"2021-05-15","MEAN_MOTION_DDOT":"0.0000000000000","MEAN_ELEMENT_THEORY":"SGP4","OBJECT_TYPE":"PAYLOAD","RCS_SIZE":"LARGE","CLASSIFICATION_TYPE":"U","ECCENTRICITY":"0.00016430","RA_OF_ASC_NODE":"43.9442","BSTAR":"0.00006664800000","COUNTRY_CODE":"US","ARG_OF_PERICENTER":"54.1065","PERIAPSIS":"546.055","SITE":"AFETR","TLE_LINE2":"2 48582  53.0566  43.9442 0001643  54.1065 306.0076 15.06406760 86163","SEMIMAJOR_AXIS":"6925.328","REF_FRAME":"TEME","MEAN_MOTION_DOT":"0.00000711","CENTER_NAME":"EARTH","OBJECT_NAME":"STARLINK-2236","TLE_LINE1":"1 48582U 21041AF  22338.56510735  .00000711  00000-0  66648-4 0  9998","DECAY_DATE":null,"EPHEMERIS_TYPE":"0","OBJECT_ID":"2021-041AF","ELEMENT_SET_NO":"999","PERIOD":"95.592","NORAD_CAT_ID":"48582","REV_AT_EPOCH":"8616","MEAN_ANOMALY":"306.0076","FILE":"3681207","GP_ID":"219520216","APOAPSIS":"548.331","EPOCH":"2022-12-04T13:33:45.275040","INCLINATION":"53.0566","TIME_SYSTEM":"UTC","MEAN_MOTION":"15.06406760"},{"REV_AT_EPOCH":"8554","MEAN_ANOMALY":"311.5109","FILE":"3681494","GP_ID":"219555142","APOAPSIS":"548.040","EPOCH":"2022-12-04T15:16:34.352544","TIME_SYSTEM":"UTC","INCLINATION":"53.0553","MEAN_MOTION":"15.06398044","OBJECT_NAME":"STARLINK-2237","TLE_LINE1":"1 48583U 21041AG  22338.63650871  .00003777  00000-0  27230-3 0  9991","DECAY_DATE":null,"EPHEMERIS_TYPE":"0","OBJECT_ID":"2021-041AG","ELEMENT_SET_NO":"999","PERIOD":"95.592","NORAD_CAT_ID":"48583","RA_OF_ASC_NODE":"88.4644","BSTAR":"0.00027230000000","COUNTRY_CODE":"US","ARG_OF_PERICENTER":"48.5981","PERIAPSIS":"546.399","TLE_LINE2":"2 48583  53.0553  88.4644 0001185  48.5981 311.5109 15.06398044 85547","SITE":"AFETR","SEMIMAJOR_AXIS":"6925.355","REF_FRAME":"TEME","MEAN_MOTION_DOT":"0.00003777","CENTER_NAME":"EARTH","LAUNCH_DATE":"2021-05-15","MEAN_ELEMENT_THEORY":"SGP4","MEAN_MOTION_DDOT":"0.0000000000000","OBJECT_TYPE":"PAYLOAD","RCS_SIZE":"LARGE","CLASSIFICATION_TYPE":"U","ECCENTRICITY":"0.00011850"},{"LAUNCH_DATE":"2021-05-15","MEAN_ELEMENT_THEORY":"SGP4","MEAN_MOTION_DDOT":"0.0000000000000","OBJECT_TYPE":"PAYLOAD","RCS_SIZE":"LARGE","CLASSIFICATION_TYPE":"U","ECCENTRICITY":"0.00017130","RA_OF_ASC_NODE":"89.7802","BSTAR":"0.00012429000000","COUNTRY_CODE":"US","ARG_OF_PERICENTER":"52.8036","PERIAPSIS":"546.053","SITE":"AFETR","TLE_LINE2":"2 48584  53.0547  89.7802 0001713  52.8036 307.3109 15.06391740 85490","SEMIMAJOR_AXIS":"6925.374","REF_FRAME":"TEME","MEAN_MOTION_DOT":"0.00001570","CENTER_NAME":"EARTH","OBJECT_NAME":"STARLINK-2238","TLE_LINE1":"1 48584U 21041AH  22338.34532194  .00001570  00000-0  12429-3 0  9990","DECAY_DATE":null,"EPHEMERIS_TYPE":"0","OBJECT_ID":"2021-041AH","ELEMENT_SET_NO":"999","PERIOD":"95.593","NORAD_CAT_ID":"48584","REV_AT_EPOCH":"8549","MEAN_ANOMALY":"307.3109","FILE":"3681207","GP_ID":"219519215","EPOCH":"2022-12-04T08:17:15.815616","APOAPSIS":"548.425","TIME_SYSTEM":"UTC","INCLINATION":"53.0547","MEAN_MOTION":"15.06391740"},{"LAUNCH_DATE":"2021-05-15","MEAN_ELEMENT_THEORY":"SGP4","MEAN_MOTION_DDOT":"0.0000000000000","OBJECT_TYPE":"PAYLOAD","ECCENTRICITY":"0.00017170","CLASSIFICATION_TYPE":"U","RCS_SIZE":"LARGE","RA_OF_ASC_NODE":"87.6496","BSTAR":"0.00008464000000","COUNTRY_CODE":"US","PERIAPSIS":"546.043","ARG_OF_PERICENTER":"54.3117","SEMIMAJOR_AXIS":"6925.367","TLE_LINE2":"2 48585  53.0564  87.6496 0001717  54.3117 305.8031 15.06394069 85569","SITE":"AFETR","REF_FRAME":"TEME","CENTER_NAME":"EARTH","MEAN_MOTION_DOT":"0.00000979","OBJECT_NAME":"STARLINK-2240","DECAY_DATE":null,"TLE_LINE1":"1 48585U 21041AJ  22338.82080838  .00000979  00000-0  84640-4 0  9994","EPHEMERIS_TYPE":"0","OBJECT_ID":"2021-041AJ","PERIOD":"95.593","ELEMENT_SET_NO":"999","NORAD_CAT_ID":"48585","MEAN_ANOMALY":"305.8031","REV_AT_EPOCH":"8556","FILE":"3681494","GP_ID":"219554648","INCLINATION":"53.0564","TIME_SYSTEM":"UTC","APOAPSIS":"548.421","EPOCH":"2022-12-04T19:41:57.844032","MEAN_MOTION":"15.06394069"},{"OBJECT_TYPE":"PAYLOAD","ECCENTRICITY":"0.00015410","CLASSIFICATION_TYPE":"U","RCS_SIZE":"LARGE","LAUNCH_DATE":"2021-05-15","MEAN_ELEMENT_THEORY":"SGP4","MEAN_MOTION_DDOT":"0.0000000000000","SEMIMAJOR_AXIS":"6925.365","TLE_LINE2":"2 48586  53.0557  89.7571 0001541  61.7507 298.3638 15.06394487 85494","SITE":"AFETR","REF_FRAME":"TEME","CENTER_NAME":"EARTH","MEAN_MOTION_DOT":"0.00001014","RA_OF_ASC_NODE":"89.7571","BSTAR":"0.00008694800000","COUNTRY_CODE":"US","PERIAPSIS":"546.163","ARG_OF_PERICENTER":"61.7507","OBJECT_ID":"2021-041AK","PERIOD":"95.592","ELEMENT_SET_NO":"999","NORAD_CAT_ID":"48586","OBJECT_NAME":"STARLINK-2241","DECAY_DATE":null,"TLE_LINE1":"1 48586U 21041AK  22338.34901092  .00001014  00000-0  86948-4 0  9990","EPHEMERIS_TYPE":"0","INCLINATION":"53.0557","TIME_SYSTEM":"UTC","EPOCH":"2022-12-04T08:22:34.543488","APOAPSIS":"548.298","MEAN_MOTION":"15.06394487","MEAN_ANOMALY":"298.3638","REV_AT_EPOCH":"8549","FILE":"3681207","GP_ID":"219520717"},{"REF_FRAME":"TEME","MEAN_MOTION_DOT":"0.00002710","CENTER_NAME":"EARTH","SITE":"AFETR","TLE_LINE2":"2 48587  53.0546  87.6581 0001388  70.3570 289.7569 15.06395702 85562","SEMIMAJOR_AXIS":"6925.362","COUNTRY_CODE":"US","ARG_OF_PERICENTER":"70.3570","PERIAPSIS":"546.265","RA_OF_ASC_NODE":"87.6581","BSTAR":"0.00020079000000","OBJECT_TYPE":"PAYLOAD","CLASSIFICATION_TYPE":"U","RCS_SIZE":"LARGE","ECCENTRICITY":"0.00013880","MEAN_ELEMENT_THEORY":"SGP4","MEAN_MOTION_DDOT":"0.0000000000000","LAUNCH_DATE":"2021-05-15","MEAN_MOTION":"15.06395702","APOAPSIS":"548.188","EPOCH":"2022-12-04T19:36:39.354624","TIME_SYSTEM":"UTC","INCLINATION":"53.0546","FILE":"3681494","GP_ID":"219555642","REV_AT_EPOCH":"8556","MEAN_ANOMALY":"289.7569","NORAD_CAT_ID":"48587","OBJECT_ID":"2021-041AL","ELEMENT_SET_NO":"999","PERIOD":"95.592","EPHEMERIS_TYPE":"0","OBJECT_NAME":"STARLINK-2242","TLE_LINE1":"1 48587U 21041AL  22338.81712216  .00002710  00000-0  20079-3 0  9997","DECAY_DATE":null},{"MEAN_ELEMENT_THEORY":"SGP4","MEAN_MOTION_DDOT":"0.0000000000000","LAUNCH_DATE":"2021-05-15","OBJECT_TYPE":"PAYLOAD","ECCENTRICITY":"0.00012370","RCS_SIZE":"LARGE","CLASSIFICATION_TYPE":"U","COUNTRY_CODE":"US","PERIAPSIS":"546.361","ARG_OF_PERICENTER":"81.9736","RA_OF_ASC_NODE":"78.3559","BSTAR":"0.00016059000000","REF_FRAME":"TEME","CENTER_NAME":"EARTH","MEAN_MOTION_DOT":"0.00002111","SEMIMAJOR_AXIS":"6925.353","TLE_LINE2":"2 48588  53.0561  78.3559 0001237  81.9736 278.1394 15.06398535 86136","SITE":"AFETR","EPHEMERIS_TYPE":"0","OBJECT_NAME":"STARLINK-2244","DECAY_DATE":null,"TLE_LINE1":"1 48588U 21041AM  22338.66323022  .00002111  00000-0  16059-3 0  9992","NORAD_CAT_ID":"48588","OBJECT_ID":"2021-041AM","PERIOD":"95.592","ELEMENT_SET_NO":"999","FILE":"3681415","GP_ID":"219530018","MEAN_ANOMALY":"278.1394","REV_AT_EPOCH":"8613","MEAN_MOTION":"15.06398535","INCLINATION":"53.0561","TIME_SYSTEM":"UTC","APOAPSIS":"548.075","EPOCH":"2022-12-04T15:55:03.091008"},{"COUNTRY_CODE":"US","ARG_OF_PERICENTER":"62.4401","PERIAPSIS":"546.185","RA_OF_ASC_NODE":"77.4713","BSTAR":"0.00019303000000","REF_FRAME":"TEME","MEAN_MOTION_DOT":"0.00002595","CENTER_NAME":"EARTH","TLE_LINE2":"2 48589  53.0551  77.4713 0001484  62.4401 297.6739 15.06400406 85718","SITE":"AFETR","SEMIMAJOR_AXIS":"6925.347","MEAN_ELEMENT_THEORY":"SGP4","MEAN_MOTION_DDOT":"0.0000000000000","LAUNCH_DATE":"2021-05-15","OBJECT_TYPE":"PAYLOAD","RCS_SIZE":"LARGE","CLASSIFICATION_TYPE":"U","ECCENTRICITY":"0.00014840","FILE":"3681494","GP_ID":"219554149","REV_AT_EPOCH":"8571","MEAN_ANOMALY":"297.6739","MEAN_MOTION":"15.06400406","APOAPSIS":"548.240","EPOCH":"2022-12-04T20:36:21.647232","INCLINATION":"53.0551","TIME_SYSTEM":"UTC","EPHEMERIS_TYPE":"0","OBJECT_NAME":"STARLINK-2245","TLE_LINE1":"1 48589U 21041AN  22338.85858388  .00002595  00000-0  19303-3 0  9993","DECAY_DATE":null,"NORAD_CAT_ID":"48589","OBJECT_ID":"2021-041AN","ELEMENT_SET_NO":"999","PERIOD":"95.592"},{"MEAN_MOTION_DDOT":"0.0000000000000","MEAN_ELEMENT_THEORY":"SGP4","LAUNCH_DATE":"2021-05-15","ECCENTRICITY":"0.00013630","RCS_SIZE":"LARGE","CLASSIFICATION_TYPE":"U","OBJECT_TYPE":"PAYLOAD","PERIAPSIS":"546.295","ARG_OF_PERICENTER":"66.7960","COUNTRY_CODE":"US","BSTAR":"0.00017718000000","RA_OF_ASC_NODE":"77.5459","CENTER_NAME":"EARTH","MEAN_MOTION_DOT":"0.00002358","REF_FRAME":"TEME","SEMIMAJOR_AXIS":"6925.374","SITE":"AFETR","TLE_LINE2":"2 48591  53.0546  77.5459 0001363  66.7960 293.3173 15.06391845 86617","EPHEMERIS_TYPE":"0","DECAY_DATE":null,"TLE_LINE1":"1 48591U 21041AQ  22338.84290695  .00002358  00000-0  17718-3 0  9991","OBJECT_NAME":"STARLINK-2248","NORAD_CAT_ID":"48591","PERIOD":"95.593","ELEMENT_SET_NO":"999","OBJECT_ID":"2021-041AQ","GP_ID":"219555143","FILE":"3681494","MEAN_ANOMALY":"293.3173","REV_AT_EPOCH":"8661","MEAN_MOTION":"15.06391845","TIME_SYSTEM":"UTC","INCLINATION":"53.0546","APOAPSIS":"548.182","EPOCH":"2022-12-04T20:13:47.160480"},{"ARG_OF_PERICENTER":"67.8807","PERIAPSIS":"546.188","COUNTRY_CODE":"US","BSTAR":"-0.00003245800000","RA_OF_ASC_NODE":"87.8340","MEAN_MOTION_DOT":"-0.00000765","CENTER_NAME":"EARTH","REF_FRAME":"TEME","SITE":"AFETR","TLE_LINE2":"2 48592  53.0563  87.8340 0001490  67.8807 292.2340 15.06398069 85565","SEMIMAJOR_AXIS":"6925.354","MEAN_MOTION_DDOT":"0.0000000000000","MEAN_ELEMENT_THEORY":"SGP4","LAUNCH_DATE":"2021-05-15","RCS_SIZE":"MEDIUM","CLASSIFICATION_TYPE":"U","ECCENTRICITY":"0.00014900","OBJECT_TYPE":"PAYLOAD","GP_ID":"219554398","FILE":"3681494","REV_AT_EPOCH":"8556","MEAN_ANOMALY":"292.2340","MEAN_MOTION":"15.06398069","APOAPSIS":"548.251","EPOCH":"2022-12-04T18:52:50.296800","TIME_SYSTEM":"UTC","INCLINATION":"53.0563","EPHEMERIS_TYPE":"0","TLE_LINE1":"1 48592U 21041AR  22338.78669325 -.00000765  00000-0 -32458-4 0  9996","DECAY_DATE":null,"OBJECT_NAME":"STARLINK-2249","NORAD_CAT_ID":"48592","ELEMENT_SET_NO":"999","PERIOD":"95.592","OBJECT_ID":"2021-041AR"}];
